GLOBALSTAR M057         
1 25943U 99058A   25091.56712716 -.00000068  00000+0  22781-3 0  9993
2 25943  51.9976 205.6501 0002759 205.7043 154.3670 12.24816106157544
GLOBALSTAR M059         
1 25944U 99058B   25091.64999793 -.00000076  00000+0  12295-3 0  9993
2 25944  52.0028  54.2266 0000476 132.2547  39.1689 11.99975434564855
GLOBALSTAR M056         
1 25945U 99058C   25091.62286947 -.00000139  00000+0 -60505-3 0  9990
2 25945  51.9968  58.2239 0001246  35.0767 136.0503 12.04778371153394
GLOBALSTAR M031         
1 25946U 99058D   25091.55083512 -.00000170  00000+0 -81137-3 0  9995
2 25946  51.9982 315.3474 0001889  47.3571 344.6724 12.16033446155227
GLOBALSTAR M039         
1 25961U 99062A   25091.43922592 -.00000084  00000+0  10913-3 0  9991
2 25961  51.9830 142.4761 0002981 172.5325 187.5586 12.62321906170528
GLOBALSTAR M034         
1 25962U 99062B   25091.57963745 -.00000059  00000+0  34548-3 0  9994
2 25962  51.9863 210.5227 0013736 253.7313 118.9919 11.79446111129332
GLOBALSTAR M029         
1 25963U 99062C   25091.32071410 -.00000049  00000+0  45889-3 0  9996
2 25963  51.9809 303.2267 0002175 345.8425 185.2112 11.99893987159894
GLOBALSTAR M061         
1 25964U 99062D   25091.61734199 -.00000072  00000+0  14309-3 0  9998
2 25964  51.9819  33.4406 0005775 177.3687 353.6590 11.76772385112163
